AAUSAT 4                
1 41460U 16025E   21309.16239553  .00009460  00000-0  42868-3 0  9998
2 41460  98.1597  98.6373 0141191 289.4315  69.1800 15.12543761303972
BEESAT-4                
1 41619U 16040W   21309.12109426  .00011475  00000-0  44153-3 0  9990
2 41619  97.2523   1.2099 0010215 184.3430 175.7722 15.26493628286467
CANX-7                  
1 41788U 16059F   21309.23385445  .00056922  00000-0  54888-2 0  9997
2 41788  98.2496  60.2047 0022207 109.8731 250.5046 14.92462036274810
RAVAN                   
1 41849U 16067B   21309.09433785  .00003153  00000-0  26291-3 0  9995
2 41849  97.9801  75.1300 0006667  10.8980 349.2386 14.99351696272367
CELTEE 1                
1 41850U 16067C   21309.13606258  .00001249  00000-0  11205-3 0  9992
2 41850  97.9712  71.1644 0008715  10.5899 349.5505 14.97627765272175
OPTICUBE 04             
1 41851U 16067D   21308.90654058  .00000797  00000-0  74161-4 0  9996
2 41851  97.9711  70.2107 0009362  17.9445 342.2105 14.97233945272108
AEROCUBE 8D             
1 41852U 16067E   21309.16677316  .00001896  00000-0  16821-3 0  9997
2 41852  97.9708  70.3777 0009936  17.3225 342.8333 14.97421584272125
AEROCUBE 8C             
1 41853U 16067F   21309.14307425  .00001705  00000-0  15192-3 0  9996
2 41853  97.9689  70.2042 0009884  16.0763 344.0770 14.97379229272119
PROMETHEUS 2-1          
1 41854U 16067G   21309.09966183  .00003645  00000-0  31375-3 0  9999
2 41854  97.9720  70.9065 0010447  17.4241 342.7337 14.97989643272145
PROMETHEUS 2-3          
1 41855U 16067H   21309.09545964  .00003498  00000-0  30114-3 0  9996
2 41855  97.9717  70.9638 0010505  17.6324 342.5260 14.98004158272140
INS-1B                  
1 41954U 17008G   21309.13360521  .00010931  00000-0  41307-3 0  9997
2 41954  97.2921   9.0992 0007380 322.8085  37.2642 15.27130116262472
BGUSAT                  
1 41999U 17008BD  21309.16835379  .00018592  00000-0  60835-3 0  9995
2 41999  97.3117  16.9019 0005728 322.5640  37.5202 15.31724321262235
DIDO-2                  
1 42000U 17008BE  21308.85043920  .00005486  00000-0  21630-3 0  9995
2 42000  97.2917   8.8630 0007427 347.7619  12.3438 15.25949131261791
PEASSS                  
1 42015U 17008BV  21309.15543382  .00009477  00000-0  35214-3 0  9999
2 42015  97.2966  12.0420 0005340 349.2905  10.8220 15.27738705262497
AL-FARABI 1             
1 42016U 17008BW  21309.14172352  .00013733  00000-0  48639-3 0  9999
2 42016  97.3020  14.1831 0004969 346.5020  13.6086 15.29223499262721
NAYIF-1 (EO-88)         
1 42017U 17008BX  21309.10420806  .00013018  00000-0  46039-3 0  9994
2 42017  97.3015  14.1527 0005045 345.3368  14.7725 15.29284711262744
UCLSAT                  
1 42765U 17036A   21309.11878194  .00010088  00000-0  39756-3 0  9995
2 42765  97.2326 354.1564 0011747  47.4968 312.7262 15.25712411243024
LITUANICASAT-2          
1 42768U 17036D   21309.10852063  .00018392  00000-0  67719-3 0  9990
2 42768  97.2407 355.4476 0013882  34.4576 325.7561 15.27802847242936
AALTO-1                 
1 42775U 17036L   21309.09680978  .00005386  00000-0  22992-3 0  9993
2 42775  97.2303 350.2770 0014483  45.0143 315.2266 15.23206806242604
URSA MAIOR              
1 42776U 17036M   21309.07278740  .00006679  00000-0  28172-3 0  9994
2 42776  97.2318 350.8054 0014236  44.5398 315.6981 15.23527561242628
COMPASS 2               
1 42777U 17036N   21309.08471653  .00015293  00000-0  58037-3 0  9999
2 42777  97.2390 355.4009 0012145  37.2147 322.9931 15.26862831242865
DIAMOND RED             
1 42783U 17036U   21308.87964288  .00007526  00000-0  30800-3 0  9991
2 42783  97.2332 352.5471 0012761  51.8078 308.4308 15.24524649242708
PEGASUS                 
1 42784U 17036V   21309.07495499  .00009082  00000-0  36369-3 0  9993
2 42784  97.2335 353.5587 0012435  49.2548 310.9768 15.25198424242787
DIAMOND GREEN           
1 42785U 17036W   21308.81332820  .00007730  00000-0  31638-3 0  9995
2 42785  97.2336 352.5358 0012644  52.6428 307.5960 15.24510407242763
DIAMOND BLUE            
1 42786U 17036X   21309.07493759  .00007698  00000-0  31503-3 0  9998
2 42786  97.2335 352.7809 0012573  52.2679 307.9697 15.24516849242724
NUDTSAT                 
1 42787U 17036Y   21308.88637426  .00008854  00000-0  33029-3 0  9998
2 42787  97.2382 356.2867 0011679  41.6496 318.5637 15.27576873242767
SUCHAI                  
1 42788U 17036Z   21309.12602570  .00011114  00000-0  43168-3 0  9997
2 42788  97.2344 354.7942 0011810  46.1914 314.0300 15.26170372242935
SKCUBE                  
1 42789U 17036AA  21308.39530396  .00015032  00000-0  58859-3 0  9998
2 42789  97.2342 353.7265 0011826  49.1893 311.0369 15.25829963242722
VZLUSAT-1               
1 42790U 17036AB  21308.09732897  .00016000  00000-0  59510-3 0  9998
2 42790  97.2378 355.5064 0010982  45.7799 314.4340 15.27532060242793
ROBUSTA-1B              
1 42792U 17036AD  21309.12736764  .00010609  00000-0  41292-3 0  9999
2 42792  97.2340 354.8731 0011357  47.1503 313.0688 15.26117951242879
CICERO 6                
1 42793U 17036AE  21308.38316800  .00009358  00000-0  38054-3 0  9993
2 42793  97.2315 352.6577 0011079  54.0807 306.1457 15.24688306242750
D-SAT                   
1 42794U 17036AF  21309.02844604  .00001212  00000-0  10820-3 0  9996
2 42794  97.4570 321.4322 0126582 115.7631 245.6715 14.91755493238051
CORVUS BC2              
1 42846U 17042X   21309.10402542  .00001123  00000-0  11474-3 0  9998
2 42846  97.4495 173.7653 0010446  35.6494 324.5422 14.92410436234816
CORVUS BC1              
1 42847U 17042Y   21309.13257701  .00000826  00000-0  85485-4 0  9990
2 42847  97.4498 174.0570 0010115  34.9022 325.2859 14.92506551234821
MIRATA                  
1 43015U 17073C   21308.51998757  .00015987  00000-0  12040-2 0  9995
2 43015  97.6903 207.3956 0246787 198.4117 160.8046 14.81400961213944
MAKERSAT 0              
1 43016U 17073D   21308.15887471  .00005068  00000-0  38930-3 0  9992
2 43016  97.6931 206.9718 0251254 202.4172 156.5908 14.80442837213844
AEROCUBE 7B (OCSD B)    
1 43042U 17071F   21308.90070015  .00048035  00000-0  78342-3 0  9992
2 43042  51.6351  94.1613 0002588 111.1109 249.0157 15.52112081220612
AEROCUBE 7C (OCSD C)    
1 43043U 17071G   21308.94776318  .00047466  00000-0  78333-3 0  9993
2 43043  51.6344  94.4630 0002819 116.4861 243.6417 15.51786934220585
CHEFSAT                 
1 43044U 17071H   21309.09182960  .00293321  00000-0  17761-2 0  9995
2 43044  51.6300  41.8317 0004398 348.0320  12.0575 15.76152107221303
ASGARDIA 1              
1 43049U 17071N   21309.10400908  .00036566  00000-0  61532-3 0  9999
2 43049  51.6365  93.4144 0001339 145.9866 214.1209 15.51362445220603
ISARA                   
1 43050U 17071P   21308.87252774  .00153156  00000-0  13670-2 0  9994
2 43050  51.6299  55.1288 0002522 325.9251  34.1583 15.67404440221108
PROPCUBE 2 (FAUNA)      
1 43052U 17071R   21308.84245644  .00049366  00000-0  78796-3 0  9999
2 43052  51.6346  90.1523 0001069 148.3399 211.7656 15.52702464220620
CORVUS BC3              
1 43118U 18004H   21309.14539872  .00006400  00000-0  26031-3 0  9999
2 43118  97.3909  19.9116 0011495  77.3738 282.8784 15.24814749212018
MICROMAS-2A             
1 43131U 18004W   21309.12066611  .00016923  00000-0  60641-3 0  9994
2 43131  97.4010  24.1700 0009466  70.0944 290.1315 15.28766645212240
SPACEBEE-4              
1 43139U 18004AE  21309.10691086  .00025501  00000-0  83126-3 0  9995
2 43139  97.4088  27.1804 0008286  67.6961 292.5158 15.31766678212398
SPACEBEE-3              
1 43140U 18004AF  21308.89419882  .00039415  00000-0  11859-2 0  9996
2 43140  97.4128  28.9567 0007490  64.4702 295.7314 15.34238856212488
SPACEBEE-2              
1 43141U 18004AG  21308.96726938  .00047015  00000-0  13733-2 0  9996
2 43141  97.4152  29.7939 0007017  62.7657 297.4300 15.35135750212533
SPACEBEE-1              
1 43142U 18004AH  21309.19104311  .00037870  00000-0  10698-2 0  9993
2 43142  97.4163  30.8033 0006829  58.3713 301.8197 15.36236684212609
CICERO 7                
1 43143U 18004AJ  21309.14699538  .00016202  00000-0  58504-3 0  9994
2 43143  97.3983  24.1559 0008048  79.3070 280.9076 15.28535454212265
GOMX-4B                 
1 43196U 18015E   21309.01045926  .00002828  00000-0  11482-3 0  9999
2 43196  97.5050  82.1783 0019463 123.6103 236.6996 15.25269614208933
GOMX-4A                 
1 43197U 18015F   21309.10702814  .00005576  00000-0  21836-3 0  9993
2 43197  97.5038  82.6609 0019650 124.4751 349.7990 15.26038610208984
AEROCUBE 12A            
1 43556U 18046C   21308.88648363  .00015065  00000-0  47546-3 0  9998
2 43556  51.6390 192.1612 0006566 309.4967  50.5434 15.33028106184814
AEROCUBE 12B            
1 43557U 18046D   21309.10750488  .00010223  00000-0  33452-3 0  9999
2 43557  51.6386 193.5911 0006710 309.2703  50.7683 15.32253878184761
SURFSAT                 
1 43614U 18070B   21309.14936833  .00022853  00000-0  49667-3 0  9991
2 43614  93.0288   4.6980 0013943 165.3029 194.8636 15.44171344176367
CP7 (DAVE)              
1 43615U 18070C   21309.13150948  .00021769  00000-0  47924-3 0  9995
2 43615  93.0291   4.6259 0014196 165.8148 194.3510 15.43791391176342
ELFIN-B                 
1 43616U 18070D   21309.10100706  .00036899  00000-0  70140-3 0  9996
2 43616  93.0237   5.0137 0013756 161.1408 199.0363 15.48032796176500
ELFIN-A                 
1 43617U 18070E   21309.13923614  .00041643  00000-0  77243-3 0  9995
2 43617  93.0295   6.0218 0013213 157.7243 202.4594 15.48727017176537
CUBEBEL-1 (BSUSAT-1)    
1 43666U 18083E   21309.15736066  .00006384  00000-0  29865-3 0  9998
2 43666  97.4447 335.7268 0015109  44.2540  27.2838 15.20001800167383
CICERO 10               
1 43690U 18088A   21308.92843472  .00007149  00000-0  31258-3 0  9993
2 43690  85.0337 104.9441 0012214 251.6065 108.3849 15.21829739165583
